OPTICUBE 04             
1 41851U 16067D   19123.21933385  .00000693  00000-0  65858-4 0  9993
2 41851  97.9136 220.2777 0009214 169.3048 190.8371 14.96790525134960
AEROCUBE 8D             
1 41852U 16067E   19122.81797788  .00000827  00000-0  77754-4 0  9991
2 41852  97.9147 219.6970 0009958 171.5863 188.5527 14.96687780134881
AEROCUBE 8C             
1 41853U 16067F   19123.24088984 -.00000266  00000-0 -17977-4 0  9991
2 41853  97.9146 220.0653 0010029 172.9266 187.2099 14.96653459134941
PROMETHEUS 2-1          
1 41854U 16067G   19123.21477164  .00000950  00000-0  88121-4 0  9998
2 41854  97.9152 220.1524 0010735 171.7857 188.3541 14.96852006134947
PROMETHEUS 2-3          
1 41855U 16067H   19123.21726380  .00000997  00000-0  92191-4 0  9999
2 41855  97.9156 220.1689 0010874 172.0188 188.1208 14.96858015134943
INS-1B                  
1 41954U 17008G   19123.39965759  .00001224  00000-0  53723-4 0  9991
2 41954  97.4033 189.0425 0007867 316.1620  43.8992 15.23822488122752
BGUSAT                  
1 41999U 17008BD  19122.85816219  .00002268  00000-0  91283-4 0  9998
2 41999  97.4101 190.6797 0007079 336.4492  23.6421 15.25908681122153
DIDO-2                  
1 42000U 17008BE  19122.73111050  .00000914  00000-0  40891-4 0  9995
2 42000  97.4047 188.9231 0007759 340.8655  19.2290 15.23806035122056
PEASSS                  
1 42015U 17008BV  19122.92103902  .00001099  00000-0  47258-4 0  9998
2 42015  97.4052 189.9946 0005820 350.3055   9.8069 15.24747483122623
AL-FARABI 1             
1 42016U 17008BW  19122.87323431  .00001443  00000-0  60063-4 0  9996
2 42016  97.4067 190.4346 0005626 350.4025   9.7105 15.25350247122767
NAYIF-1 (EO-88)         
1 42017U 17008BX  19122.86174506  .00001454  00000-0  60463-4 0  9999
2 42017  97.4064 190.4328 0005633 350.7143   9.3989 15.25382072122786
PHOENIX                 
1 42706U 98067LP  19123.49589669  .00958722  60253-3  69282-3 0  9993
2 42706  51.6154 136.8623 0005149  29.1121  96.7296 16.15284083112547
ALTAIR PATHFINDER       
1 42711U 98067LS  19123.40055998  .00032363  00000-0  19369-3 0  9999
2 42711  51.6339 169.3374 0004226 344.6304  15.4567 15.77519779111778
SHARC                   
1 42712U 98067LT  19123.64217769  .08981558  12375-4  84912-3 0  9997
2 42712  51.6192 152.4129 0003348 312.8737 146.7300 16.37776182112255
ZA-AEROSAT              
1 42713U 98067LU  19123.46121372  .00203127  28164-4  41212-3 0  9992
2 42713  51.6252 145.3799 0007032  23.5685 336.5646 15.99069102112097
NJUST-1                 
1 42722U 98067MB  19123.49608767  .00078970  13392-4  27296-3 0  9992
2 42722  51.6317 152.9892 0008740  18.3989 130.1941 15.89582661111064
NSIGHT                  
1 42726U 98067MF  19123.45041113  .00019258  00000-0  16427-3 0  9994
2 42726  51.6365 184.9386 0006171 359.6304   0.4688 15.69535025110552
BEEAGLESAT              
1 42736U 98067MR  19116.58349394  .05344197  12378-4  56382-3 0  9990
2 42736  51.6116 172.4218 0006034 335.7210 140.8917 16.36759636110007
UCLSAT                  
1 42765U 17036A   19123.40476240  .00001173  00000-0  53344-4 0  9999
2 42765  97.3554 182.3951 0012525  39.9861 320.2295 15.22626772103422
LITUANICASAT-2          
1 42768U 17036D   19122.85826282  .00001964  00000-0  87275-4 0  9993
2 42768  97.3588 181.4395 0015910  31.2352 328.9827 15.22600069103185
AALTO-1                 
1 42775U 17036L   19122.83034468  .00000777  00000-0  37757-4 0  9997
2 42775  97.3541 180.6884 0014808  31.2840 328.9274 15.21256939103080
URSA MAIOR              
1 42776U 17036M   19122.66353198  .00000867  00000-0  41651-4 0  9991
2 42776  97.3551 180.6579 0014642  31.9318 328.2802 15.21382775103062
COMPASS 2               
1 42777U 17036N   19123.14289944  .00001609  00000-0  71799-4 0  9994
2 42777  97.3586 182.1714 0013367  32.4775 327.7281 15.22733486103183
DIAMOND RED             
1 42783U 17036U   19122.90780872  .00000995  00000-0  46388-4 0  9993
2 42783  97.3555 181.5482 0013261  41.9806 318.2445 15.22098476103139
PEGASUS                 
1 42784U 17036V   19123.15861046  .00001116  00000-0  51241-4 0  9995
2 42784  97.3558 181.9903 0013113  40.8155 319.4061 15.22379989103189
DIAMOND GREEN           
1 42785U 17036W   19122.84089691  .00001002  00000-0  46711-4 0  9999
2 42785  97.3557 181.5053 0013185  42.7960 317.4300 15.22098296103199
DIAMOND BLUE            
1 42786U 17036X   19123.43158563  .00000954  00000-0  44599-4 0  9998
2 42786  97.3556 182.0819 0012977  41.2106 319.0107 15.22097939103207
NUDTSAT                 
1 42787U 17036Y   19122.92227699  .00001850  00000-0  80790-4 0  9998
2 42787  97.3590 182.3603 0013551  36.6184 323.5967 15.23290494103029
SUCHAI                  
1 42788U 17036Z   19122.91522749  .00001315  00000-0  59193-4 0  9991
2 42788  97.3562 182.0196 0012692  41.2610 318.9584 15.22772654103232
SKCUBE                  
1 42789U 17036AA  19122.73091386  .00001279  00000-0  57804-4 0  9996
2 42789  97.3559 181.7912 0012582  41.9361 318.2837 15.22681581103129
VZLUSAT-1               
1 42790U 17036AB  19122.90914456  .00001624  00000-0  71340-4 0  9994
2 42790  97.3572 182.3511 0012094  41.2216 318.9932 15.23288609103171
ROBUSTA-1B              
1 42792U 17036AD  19122.79824073  .00001285  00000-0  57767-4 0  9998
2 42792  97.3560 181.9926 0012175  42.6499 317.5680 15.22844689103151
CICERO 6                
1 42793U 17036AE  19122.78063598  .00000919  00000-0  42608-4 0  9996
2 42793  97.3544 181.7993 0011461  44.5571 315.6585 15.22483105103217
D-SAT                   
1 42794U 17036AF  19123.10088768  .00000034  00000-0  86710-5 0  9991
2 42794  97.5446 169.8391 0125176 297.2724  61.5790 14.91068071101394
TOKI                    
1 42820U 98067MU  19123.10626650  .20777511  12651-4  37226-3 0  9990
2 42820  51.6051 142.7539 0005305 301.2009  59.2873 16.47402492104441
MAZAALAI (NUMSAT-1)     
1 42822U 98067MW  19123.52120904  .00665823  25399-3  60927-3 0  9995
2 42822  51.6201 144.1657 0006793  24.5783 335.5554 16.11798871104449
BRAC ONNESHA            
1 42823U 98067MX  19123.59581137  .01514658  11891-4  70040-3 0  9992
2 42823  51.6150 142.1338 0004862  18.4802  79.0446 16.21043134104475
NIGERIAEDUSAT-1         
1 42824U 98067MY  19123.53262230  .00537168  15769-3  57524-3 0  9996
2 42824  51.6214 145.0722 0007633  22.3286 337.8058 16.09416653104420
CORVUS BC2              
1 42846U 17042X   19123.20142445  .00000215  00000-0  26510-4 0  9992
2 42846  97.5710  19.0440 0008890 201.7178 158.3666 14.91953942 98081
CORVUS BC1              
1 42847U 17042Y   19122.88952314 -.00000035  00000-0  18180-5 0  9996
2 42847  97.5712  18.8431 0008488 201.6846 158.4015 14.92053584 98033
MIRATA                  
1 43015U 17073C   19122.72978800  .00001149  00000-0  95793-4 0  9999
2 43015  97.7198  45.7712 0254654 311.0943  46.8523 14.78898003 78358
MAKERSAT 0              
1 43016U 17073D   19123.34549431  .00000740  00000-0  63719-4 0  9992
2 43016  97.7231  46.5580 0256634 309.3519  48.5201 14.78676826 78436
ASTERIA                 
1 43020U 98067NH  19123.44949080  .00021417  00000-0  18738-3 0  9998
2 43020  51.6421 195.6045 0002762 335.7703  24.3163 15.68850221 82596
DELLINGR (RBLE)         
1 43021U 98067NJ  19123.47761514  .00007791  00000-0  92089-4 0  9997
2 43021  51.6384 205.4462 0002233 303.9649  56.1133 15.62363345 82463
AEROCUBE 7B (OCSD B)    
1 43042U 17071F   19122.94345042  .00003362  00000-0  90157-4 0  9995
2 43042  51.6377 281.4252 0004457 352.0657   8.0256 15.40914696 78872
AEROCUBE 7C (OCSD C)    
1 43043U 17071G   19122.74883724  .00003382  00000-0  90692-4 0  9994
2 43043  51.6382 282.3893 0004624 353.7453   6.3474 15.40897244 78814
CHEFSAT                 
1 43044U 17071H   19122.94602109  .00006727  00000-0  15762-3 0  9993
2 43044  51.6381 277.0560 0004416 352.1193   7.9723 15.43317852 78908
ASGARDIA 1              
1 43049U 17071N   19122.70468385  .00004141  00000-0  10838-3 0  9995
2 43049  51.6385 282.1186 0002377  19.2846 340.8229 15.41025179 78803
ISARA                   
1 43050U 17071P   19122.94675678  .00005943  00000-0  14254-3 0  9995
2 43050  51.6376 277.7748 0002098  14.6071 345.4975 15.42843103 78892
PROPCUBE 2 (FAUNA)      
1 43052U 17071R   19123.49663473  .00004210  00000-0  10909-3 0  9997
2 43052  51.6384 277.6738 0002221  17.9582 342.1482 15.41287329 78935
CORVUS BC3              
1 43118U 18004H   19122.95146397  .00000780  00000-0  36437-4 0  9991
2 43118  97.4898 190.4549 0011910  60.9680 299.2748 15.22764219 72365
MICROMAS-2A             
1 43131U 18004W   19123.19240757  .00001890  00000-0  81072-4 0  9996
2 43131  97.4922 191.2801 0010909  62.7993 297.4354 15.23941555 72434
CICERO 7                
1 43143U 18004AJ  19123.15466262  .00001468  00000-0  63347-4 0  9992
2 43143  97.4909 191.4542 0009193  71.7304 288.4933 15.24104174 72448
GOMX-4B                 
1 43196U 18015E   19123.34654229  .00000497  00000-0  23424-4 0  9998
2 43196  97.3818 251.5629 0020149 108.5650 251.7780 15.23896146 69282
GOMX-4A                 
1 43197U 18015F   19123.40496943  .00000441  00000-0  21054-4 0  9999
2 43197  97.3841 251.6424 0020766 109.1768 296.4642 15.23984421 69305
1KUNS-PF                
1 43466U 98067NP  19123.43941780  .00019558  00000-0  20383-3 0  9992
2 43466  51.6376 208.9236 0001630 334.9932  25.0984 15.64549834 55676
UBAKUSAT                
1 43467U 98067NQ  19123.48584645  .00012092  00000-0  14264-3 0  9998
2 43467  51.6375 211.4791 0002206 272.5013  87.5728 15.61801822 55650
BATSU-CS1 (IRAZU)       
1 43468U 98067NR  19123.50324572  .00025523  00000-0  24181-3 0  9995
2 43468  51.6369 206.3370 0002016 339.2315  20.8598 15.66767111155704
CUBERRT                 
1 43546U 98067NU  19123.24157966  .00011598  00000-0  13152-3 0  9997
2 43546  51.6381 214.3429 0005820 323.0108  37.0485 15.62867996 45729
